{"type": "FeatureCollection", "features": [ {"type": "Feature", "properties": {"norad_id": 33867, "name": "IRIDIUM 33 DEB", "group": "iridium-33-debris", "lat": 51.796297694635896, "lon": 170.0317819338753, "alt_km": 392.6025100025572, "timestamp": "2025-12-03T20:47:58.609768+00:00", "meta": {"OBJECT_NAME": "IRIDIUM 33 DEB", "OBJECT_ID": "1997-051AL", "EPOCH": "2025-12-03T07:53:15.165600", "MEAN_MOTION": 15.53727826, "ECCENTRICITY": 0.0012182, "INCLINATION": 86.3627, "RA_OF_ASC_NODE": 354.9416, "ARG_OF_PERICENTER": 99.5397, "MEAN_ANOMALY": 260.7241, "EPHEMERIS_TYPE": 0, "CLASSIFICATION_TYPE": "U", "NORAD_CAT_ID": 33867, "ELEMENT_SET_NO": 999, "REV_AT_EPOCH": 89364, "BSTAR": 0.0073072, "MEAN_MOTION_DOT": 0.00497539, "MEAN_MOTION_DDOT": 0}, "tle": {"line1": "1 33867U 97051AL  25337.32864775  .00497539  00000+0  73072-2 0  9998", "line2": "2 33867  86.3627 354.9416 0012182  99.5397 260.7241 15.53727826893647"}}, "geometry": {"type": "Point", "coordinates": [170.0317819338753, 51.796297694635896]}}, {"type": "Feature", "properties": {"norad_id": 33870, "name": "IRIDIUM 33 DEB", "group": "iridium-33-debris", "lat": -71.81162960951991, "lon": -106.81362177773013, "alt_km": 736.4767410002842, "timestamp": "2025-12-03T20:47:58.609779+00:00", "meta": {"OBJECT_NAME": "IRIDIUM 33 DEB", "OBJECT_ID": "1997-051AP", "EPOCH": "2025-12-03T04:49:08.389056", "MEAN_MOTION": 14.45760529, "ECCENTRICITY": 0.00204752, "INCLINATION": 86.3757, "RA_OF_ASC_NODE": 62.349, "ARG_OF_PERICENTER": 209.9044, "MEAN_ANOMALY": 178.6407, "EPHEMERIS_TYPE": 0, "CLASSIFICATION_TYPE": "U", "NORAD_CAT_ID": 33870, "ELEMENT_SET_NO": 999, "REV_AT_EPOCH": 87999, "BSTAR": 0.0011974106, "MEAN_MOTION_DOT": 4.273e-05, "MEAN_MOTION_DDOT": 0}, "tle": {"line1": "1 33870U 97051AP  25337.20079154  .00004273  00000+0  11974-2 0  9990", "line2": "2 33870  86.3757  62.3490 0020475 209.9044 178.6407 14.45760529879997"}}, "geometry": {"type": "Point", "coordinates": [-106.81362177773013, -71.81162960951991]}}, {"type": "Feature", "properties": {"norad_id": 33881, "name": "IRIDIUM 33 DEB", "group": "iridium-33-debris", "lat": 39.37026915881462, "lon": -72.37597593192174, "alt_km": 682.3104017290625, "timestamp": "2025-12-03T20:47:58.609790+00:00", "meta": {"OBJECT_NAME": "IRIDIUM 33 DEB", "OBJECT_ID": "1997-051BA", "EPOCH": "2025-12-03T08:52:49.327968", "MEAN_MOTION": 14.56290168, "ECCENTRICITY": 0.0061157, "INCLINATION": 86.3865, "RA_OF_ASC_NODE": 110.812, "ARG_OF_PERICENTER": 205.0667, "MEAN_ANOMALY": 213.9917, "EPHEMERIS_TYPE": 0, "CLASSIFICATION_TYPE": "U", "NORAD_CAT_ID": 33881, "ELEMENT_SET_NO": 999, "REV_AT_EPOCH": 87364, "BSTAR": 0.002603, "MEAN_MOTION_DOT": 0.00011848, "MEAN_MOTION_DDOT": 0}, "tle": {"line1": "1 33881U 97051BA  25337.37001537  .00011848  00000+0  26030-2 0  9995", "line2": "2 33881  86.3865 110.8120 0061157 205.0667 213.9917 14.56290168873642"}}, "geometry": {"type": "Point", "coordinates": [-72.37597593192174, 39.37026915881462]}}, {"type": "Feature", "properties": {"norad_id": 33884, "name": "IRIDIUM 33 DEB", "group": "iridium-33-debris", "lat": 37.0763828722517, "lon": -168.92584163909274, "alt_km": 642.0313664244195, "timestamp": "2025-12-03T20:47:58.609801+00:00", "meta": {"OBJECT_NAME": "IRIDIUM 33 DEB", "OBJECT_ID": "1997-051BD", "EPOCH": "2025-12-03T02:24:03.793824", "MEAN_MOTION": 14.77130142, "ECCENTRICITY": 0.00106894, "INCLINATION": 86.3701, "RA_OF_ASC_NODE": 14.1694, "ARG_OF_PERICENTER": 359.2537, "MEAN_ANOMALY": 29.5165, "EPHEMERIS_TYPE": 0, "CLASSIFICATION_TYPE": "U", "NORAD_CAT_ID": 33884, "ELEMENT_SET_NO": 999, "REV_AT_EPOCH": 88705, "BSTAR": 0.0017255958, "MEAN_MOTION_DOT": 0.0001224, "MEAN_MOTION_DDOT": 0}, "tle": {"line1": "1 33884U 97051BD  25337.10004391  .00012240  00000+0  17256-2 0  9997", "line2": "2 33884  86.3701  14.1694 0010689 359.2537  29.5165 14.77130142887052"}}, "geometry": {"type": "Point", "coordinates": [-168.92584163909274, 37.0763828722517]}}, {"type": "Feature", "properties": {"norad_id": 33886, "name": "IRIDIUM 33 DEB", "group": "iridium-33-debris", "lat": -55.62191765575122, "lon": 65.65842163916649, "alt_km": 771.1647938793585, "timestamp": "2025-12-03T20:47:58.609812+00:00", "meta": {"OBJECT_NAME": "IRIDIUM 33 DEB", "OBJECT_ID": "1997-051BF", "EPOCH": "2025-12-03T07:58:37.156800", "MEAN_MOTION": 14.36032892, "ECCENTRICITY": 0.0012062, "INCLINATION": 86.3832, "RA_OF_ASC_NODE": 71.1878, "ARG_OF_PERICENTER": 277.8221, "MEAN_ANOMALY": 146.0866, "EPHEMERIS_TYPE": 0, "CLASSIFICATION_TYPE": "U", "NORAD_CAT_ID": 33886, "ELEMENT_SET_NO": 999, "REV_AT_EPOCH": 87917, "BSTAR": 0.00031822, "MEAN_MOTION_DOT": 9.45e-06, "MEAN_MOTION_DDOT": 0}, "tle": {"line1": "1 33886U 97051BF  25337.33237450  .00000945  00000+0  31822-3 0  9993", "line2": "2 33886  86.3832  71.1878 0012062 277.8221 146.0866 14.36032892879173"}}, "geometry": {"type": "Point", "coordinates": [65.65842163916649, -55.62191765575122]}}, {"type": "Feature", "properties": {"norad_id": 33887, "name": "IRIDIUM 33 DEB", "group": "iridium-33-debris", "lat": -23.108026944357878, "lon": -171.20397814076054, "alt_km": 772.1262467525721, "timestamp": "2025-12-03T20:47:58.609823+00:00", "meta": {"OBJECT_NAME": "IRIDIUM 33 DEB", "OBJECT_ID": "1997-051BG", "EPOCH": "2025-12-03T08:13:03.824832", "MEAN_MOTION": 14.37207474, "ECCENTRICITY": 0.0004033, "INCLINATION": 86.3052, "RA_OF_ASC_NODE": 7.4418, "ARG_OF_PERICENTER": 271.7393, "MEAN_ANOMALY": 100.6475, "EPHEMERIS_TYPE": 0, "CLASSIFICATION_TYPE": "U", "NORAD_CAT_ID": 33887, "ELEMENT_SET_NO": 999, "REV_AT_EPOCH": 88030, "BSTAR": 0.00021393, "MEAN_MOTION_DOT": 6.56e-06, "MEAN_MOTION_DDOT": 0}, "tle": {"line1": "1 33887U 97051BG  25337.34240538  .00000656  00000+0  21393-3 0  9997", "line2": "2 33887  86.3052   7.4418 0004033 271.7393 100.6475 14.37207474880302"}}, "geometry": {"type": "Point", "coordinates": [-171.20397814076054, -23.108026944357878]}}, {"type": "Feature", "properties": {"norad_id": 33953, "name": "IRIDIUM 33 DEB", "group": "iridium-33-debris", "lat": -23.500753083971034, "lon": -120.7951038708327, "alt_km": 710.6962217823766, "timestamp": "2025-12-03T20:47:58.609834+00:00", "meta": {"OBJECT_NAME": "IRIDIUM 33 DEB", "OBJECT_ID": "1997-051BN", "EPOCH": "2025-12-03T05:09:00.715968", "MEAN_MOTION": 14.55157442, "ECCENTRICITY": 0.0018449, "INCLINATION": 86.3853, "RA_OF_ASC_NODE": 57.9126, "ARG_OF_PERICENTER": 131.9522, "MEAN_ANOMALY": 257.615, "EPHEMERIS_TYPE": 0, "CLASSIFICATION_TYPE": "U", "NORAD_CAT_ID": 33953, "ELEMENT_SET_NO": 999, "REV_AT_EPOCH": 88165, "BSTAR": 0.0017324, "MEAN_MOTION_DOT": 7.523e-05, "MEAN_MOTION_DDOT": 0}, "tle": {"line1": "1 33953U 97051BN  25337.21459162  .00007523  00000+0  17324-2 0  9990", "line2": "2 33953  86.3853  57.9126 0018449 131.9522 257.6150 14.55157442881659"}}, "geometry": {"type": "Point", "coordinates": [-120.7951038708327, -23.500753083971034]}}, {"type": "Feature", "properties": {"norad_id": 33960, "name": "IRIDIUM 33 DEB", "group": "iridium-33-debris", "lat": 35.48795434809851, "lon": 111.0166520118489, "alt_km": 611.5957230071408, "timestamp": "2025-12-03T20:47:58.609845+00:00", "meta": {"OBJECT_NAME": "IRIDIUM 33 DEB", "OBJECT_ID": "1997-051BV", "EPOCH": "2025-12-03T07:47:15.986976", "MEAN_MOTION": 14.84371452, "ECCENTRICITY": 0.0007026, "INCLINATION": 86.2527, "RA_OF_ASC_NODE": 293.9503, "ARG_OF_PERICENTER": 74.7434, "MEAN_ANOMALY": 54.2273, "EPHEMERIS_TYPE": 0, "CLASSIFICATION_TYPE": "U", "NORAD_CAT_ID": 33960, "ELEMENT_SET_NO": 999, "REV_AT_EPOCH": 88727, "BSTAR": 0.0041779, "MEAN_MOTION_DOT": 0.00035262, "MEAN_MOTION_DDOT": 0}, "tle": {"line1": "1 33960U 97051BV  25337.32449059  .00035262  00000+0  41779-2 0  9996", "line2": "2 33960  86.2527 293.9503 0007026  74.7434  54.2273 14.84371452887272"}}, "geometry": {"type": "Point", "coordinates": [111.0166520118489, 35.48795434809851]}}, {"type": "Feature", "properties": {"norad_id": 33966, "name": "IRIDIUM 33 DEB", "group": "iridium-33-debris", "lat": 29.1693929565021, "lon": -132.18300566877517, "alt_km": 724.3118966396005, "timestamp": "2025-12-03T20:47:58.609855+00:00", "meta": {"OBJECT_NAME": "IRIDIUM 33 DEB", "OBJECT_ID": "1997-051CB", "EPOCH": "2025-12-03T05:26:31.517952", "MEAN_MOTION": 14.49526909, "ECCENTRICITY": 0.000637, "INCLINATION": 86.3933, "RA_OF_ASC_NODE": 50.109, "ARG_OF_PERICENTER": 222.6841, "MEAN_ANOMALY": 191.0152, "EPHEMERIS_TYPE": 0, "CLASSIFICATION_TYPE": "U", "NORAD_CAT_ID": 33966, "ELEMENT_SET_NO": 999, "REV_AT_EPOCH": 88304, "BSTAR": 0.00087232, "MEAN_MOTION_DOT": 3.363e-05, "MEAN_MOTION_DDOT": 0}, "tle": {"line1": "1 33966U 97051CB  25337.22675368  .00003363  00000+0  87232-3 0  9997", "line2": "2 33966  86.3933  50.1090 0006370 222.6841 191.0152 14.49526909883048"}}, "geometry": {"type": "Point", "coordinates": [-132.18300566877517, 29.1693929565021]}}, {"type": "Feature", "properties": {"norad_id": 34071, "name": "IRIDIUM 33 DEB", "group": "iridium-33-debris", "lat": -41.38743580192533, "lon": -155.08734495157998, "alt_km": 734.2767506395212, "timestamp": "2025-12-03T20:47:58.609865+00:00", "meta": {"OBJECT_NAME": "IRIDIUM 33 DEB", "OBJECT_ID": "1997-051CE", "EPOCH": "2025-12-03T11:29:50.811648", "MEAN_MOTION": 14.49396054, "ECCENTRICITY": 0.0009487, "INCLINATION": 86.3467, "RA_OF_ASC_NODE": 21.8534, "ARG_OF_PERICENTER": 132.6623, "MEAN_ANOMALY": 227.5382, "EPHEMERIS_TYPE": 0, "CLASSIFICATION_TYPE": "U", "NORAD_CAT_ID": 34071, "ELEMENT_SET_NO": 999, "REV_AT_EPOCH": 88200, "BSTAR": 0.00091118, "MEAN_MOTION_DOT": 3.504e-05, "MEAN_MOTION_DDOT": 0}, "tle": {"line1": "1 34071U 97051CE  25337.47906032  .00003504  00000+0  91118-3 0  9992", "line2": "2 34071  86.3467  21.8534 0009487 132.6623 227.5382 14.49396054882007"}}, "geometry": {"type": "Point", "coordinates": [-155.08734495157998, -41.38743580192533]}}]}